{"type": "FeatureCollection", "features": [ {"type": "Feature", "properties": {"norad_id": 47015, "name": "FENGYUN 1C DEB", "group": "fengyun-1c-debris", "lat": -55.09388173296199, "lon": 66.48722710457008, "alt_km": 703.5021253954947, "timestamp": "2025-12-22T04:03:39.460158+00:00", "meta": {"OBJECT_NAME": "FENGYUN 1C DEB", "OBJECT_ID": "1999-025FAR", "EPOCH": "2025-12-20T10:20:25.475424", "MEAN_MOTION": 14.87477483, "ECCENTRICITY": 0.01753836, "INCLINATION": 98.7094, "RA_OF_ASC_NODE": 51.8891, "ARG_OF_PERICENTER": 88.0341, "MEAN_ANOMALY": 274.0948, "EPHEMERIS_TYPE": 0, "CLASSIFICATION_TYPE": "U", "NORAD_CAT_ID": 47015, "ELEMENT_SET_NO": 999, "REV_AT_EPOCH": 64496, "BSTAR": 0.00039688494, "MEAN_MOTION_DOT": 4.702e-05, "MEAN_MOTION_DDOT": 0}, "tle": {"line1": "1 47015U 99025FAR 25354.43085041  .00004702  00000+0  39688-3 0  9995", "line2": "2 47015  98.7094  51.8891 0175383  88.0341 274.0948 14.87477483644965"}}, "geometry": {"type": "Point", "coordinates": [66.48722710457008, -55.09388173296199]}}, {"type": "Feature", "properties": {"norad_id": 47025, "name": "FENGYUN 1C DEB", "group": "fengyun-1c-debris", "lat": -22.62244994868811, "lon": -152.88000244407803, "alt_km": 714.1542352652659, "timestamp": "2025-12-22T04:03:39.460168+00:00", "meta": {"OBJECT_NAME": "FENGYUN 1C DEB", "OBJECT_ID": "1999-025FBB", "EPOCH": "2025-12-20T09:34:08.170752", "MEAN_MOTION": 14.46390047, "ECCENTRICITY": 0.00405413, "INCLINATION": 99.0322, "RA_OF_ASC_NODE": 201.4338, "ARG_OF_PERICENTER": 335.101, "MEAN_ANOMALY": 148.2419, "EPHEMERIS_TYPE": 0, "CLASSIFICATION_TYPE": "U", "NORAD_CAT_ID": 47025, "ELEMENT_SET_NO": 999, "REV_AT_EPOCH": 62852, "BSTAR": 0.0013507496, "MEAN_MOTION_DOT": 4.852e-05, "MEAN_MOTION_DDOT": 0}, "tle": {"line1": "1 47025U 99025FBB 25354.39870568  .00004852  00000+0  13507-2 0  9994", "line2": "2 47025  99.0322 201.4338 0040541 335.1010 148.2419 14.46390047628523"}}, "geometry": {"type": "Point", "coordinates": [-152.88000244407803, -22.62244994868811]}}, {"type": "Feature", "properties": {"norad_id": 47036, "name": "FENGYUN 1C DEB", "group": "fengyun-1c-debris", "lat": 16.52466595373025, "lon": -138.01706502822842, "alt_km": 843.9213075639418, "timestamp": "2025-12-22T04:03:39.460178+00:00", "meta": {"OBJECT_NAME": "FENGYUN 1C DEB", "OBJECT_ID": "1999-025FBN", "EPOCH": "2025-12-13T21:36:35.845632", "MEAN_MOTION": 14.15176928, "ECCENTRICITY": 0.00688587, "INCLINATION": 98.7222, "RA_OF_ASC_NODE": 31.2877, "ARG_OF_PERICENTER": 94.4248, "MEAN_ANOMALY": 84.992, "EPHEMERIS_TYPE": 0, "CLASSIFICATION_TYPE": "U", "NORAD_CAT_ID": 47036, "ELEMENT_SET_NO": 999, "REV_AT_EPOCH": 59943, "BSTAR": 0.0001889836, "MEAN_MOTION_DOT": 3.33e-06, "MEAN_MOTION_DDOT": 0}, "tle": {"line1": "1 47036U 99025FBN 25347.90041488  .00000333  00000+0  18898-3 0  9995", "line2": "2 47036  98.7222  31.2877 0068858  94.4248  84.9920 14.15176928599432"}}, "geometry": {"type": "Point", "coordinates": [-138.01706502822842, 16.52466595373025]}}, {"type": "Feature", "properties": {"norad_id": 47040, "name": "FENGYUN 1C DEB", "group": "fengyun-1c-debris", "lat": 15.294949211837194, "lon": -98.6325812573771, "alt_km": 916.5267108251765, "timestamp": "2025-12-22T04:03:39.460188+00:00", "meta": {"OBJECT_NAME": "FENGYUN 1C DEB", "OBJECT_ID": "1999-025FBS", "EPOCH": "2025-12-15T23:27:12.170880", "MEAN_MOTION": 14.06493473, "ECCENTRICITY": 0.00627218, "INCLINATION": 100.2945, "RA_OF_ASC_NODE": 257.1831, "ARG_OF_PERICENTER": 223.9582, "MEAN_ANOMALY": 135.6583, "EPHEMERIS_TYPE": 0, "CLASSIFICATION_TYPE": "U", "NORAD_CAT_ID": 47040, "ELEMENT_SET_NO": 999, "REV_AT_EPOCH": 89154, "BSTAR": 0.00050503613, "MEAN_MOTION_DOT": 7.95e-06, "MEAN_MOTION_DDOT": 0}, "tle": {"line1": "1 47040U 99025FBS 25349.97722420  .00000795  00000+0  50504-3 0  9993", "line2": "2 47040 100.2945 257.1831 0062721 223.9582 135.6583 14.06493473891543"}}, "geometry": {"type": "Point", "coordinates": [-98.6325812573771, 15.294949211837194]}}, {"type": "Feature", "properties": {"norad_id": 47041, "name": "FENGYUN 1C DEB", "group": "fengyun-1c-debris", "lat": 64.59284975011926, "lon": -138.830755640007, "alt_km": 529.30689408129, "timestamp": "2025-12-22T04:03:39.460198+00:00", "meta": {"OBJECT_NAME": "FENGYUN 1C DEB", "OBJECT_ID": "1999-025FBT", "EPOCH": "2025-12-20T20:28:57.423360", "MEAN_MOTION": 15.07559157, "ECCENTRICITY": 0.00151176, "INCLINATION": 98.2551, "RA_OF_ASC_NODE": 21.96, "ARG_OF_PERICENTER": 159.3194, "MEAN_ANOMALY": 18.2404, "EPHEMERIS_TYPE": 0, "CLASSIFICATION_TYPE": "U", "NORAD_CAT_ID": 47041, "ELEMENT_SET_NO": 999, "REV_AT_EPOCH": 71311, "BSTAR": 0.0010651389, "MEAN_MOTION_DOT": 0.00016188, "MEAN_MOTION_DDOT": 0}, "tle": {"line1": "1 47041U 99025FBT 25354.85344240  .00016188  00000+0  10651-2 0  9998", "line2": "2 47041  98.2551  21.9600 0015117 159.3194  18.2404 15.07559157713110"}}, "geometry": {"type": "Point", "coordinates": [-138.830755640007, 64.59284975011926]}}, {"type": "Feature", "properties": {"norad_id": 47042, "name": "FENGYUN 1C DEB", "group": "fengyun-1c-debris", "lat": 18.38588399728539, "lon": 76.89932165331986, "alt_km": 851.4135573588728, "timestamp": "2025-12-22T04:03:39.460208+00:00", "meta": {"OBJECT_NAME": "FENGYUN 1C DEB", "OBJECT_ID": "1999-025FBU", "EPOCH": "2025-12-19T12:00:36.072000", "MEAN_MOTION": 14.22844145, "ECCENTRICITY": 0.0055101, "INCLINATION": 99.0013, "RA_OF_ASC_NODE": 251.153, "ARG_OF_PERICENTER": 15.4542, "MEAN_ANOMALY": 162.9996, "EPHEMERIS_TYPE": 0, "CLASSIFICATION_TYPE": "U", "NORAD_CAT_ID": 47042, "ELEMENT_SET_NO": 999, "REV_AT_EPOCH": 62617, "BSTAR": 0.00020738, "MEAN_MOTION_DOT": 4.26e-06, "MEAN_MOTION_DDOT": 0}, "tle": {"line1": "1 47042U 99025FBU 25353.50041750  .00000426  00000+0  20738-3 0  9996", "line2": "2 47042  99.0013 251.1530 0055101  15.4542 162.9996 14.22844145626170"}}, "geometry": {"type": "Point", "coordinates": [76.89932165331986, 18.38588399728539]}}, {"type": "Feature", "properties": {"norad_id": 47100, "name": "FENGYUN 1C DEB", "group": "fengyun-1c-debris", "lat": 1.8954873765658617, "lon": -3.315984457813463, "alt_km": 776.602152135415, "timestamp": "2025-12-22T04:03:39.460218+00:00", "meta": {"OBJECT_NAME": "FENGYUN 1C DEB", "OBJECT_ID": "1999-025FBY", "EPOCH": "2025-12-19T23:57:11.875104", "MEAN_MOTION": 14.51522171, "ECCENTRICITY": 0.00893614, "INCLINATION": 99.0201, "RA_OF_ASC_NODE": 174.0542, "ARG_OF_PERICENTER": 331.9168, "MEAN_ANOMALY": 27.722, "EPHEMERIS_TYPE": 0, "CLASSIFICATION_TYPE": "U", "NORAD_CAT_ID": 47100, "ELEMENT_SET_NO": 999, "REV_AT_EPOCH": 26873, "BSTAR": 0.0012067674, "MEAN_MOTION_DOT": 5.03e-05, "MEAN_MOTION_DDOT": 0}, "tle": {"line1": "1 47100U 99025FBY 25353.99805411  .00005030  00000+0  12068-2 0  9998", "line2": "2 47100  99.0201 174.0542 0089361 331.9168  27.7220 14.51522171268731"}}, "geometry": {"type": "Point", "coordinates": [-3.315984457813463, 1.8954873765658617]}}, {"type": "Feature", "properties": {"norad_id": 47104, "name": "FENGYUN 1C DEB", "group": "fengyun-1c-debris", "lat": 72.90181693844245, "lon": -123.56965084025887, "alt_km": 846.6406255841584, "timestamp": "2025-12-22T04:03:39.460228+00:00", "meta": {"OBJECT_NAME": "FENGYUN 1C DEB", "OBJECT_ID": "1999-025FCC", "EPOCH": "2025-12-20T19:25:32.617920", "MEAN_MOTION": 14.19434358, "ECCENTRICITY": 0.00403981, "INCLINATION": 98.9084, "RA_OF_ASC_NODE": 24.4065, "ARG_OF_PERICENTER": 313.3102, "MEAN_ANOMALY": 46.4707, "EPHEMERIS_TYPE": 0, "CLASSIFICATION_TYPE": "U", "NORAD_CAT_ID": 47104, "ELEMENT_SET_NO": 999, "REV_AT_EPOCH": 62487, "BSTAR": 0.00016269056, "MEAN_MOTION_DOT": 2.99e-06, "MEAN_MOTION_DDOT": 0}, "tle": {"line1": "1 47104U 99025FCC 25354.80940530  .00000299  00000+0  16269-3 0  9995", "line2": "2 47104  98.9084  24.4065 0040398 313.3102  46.4707 14.19434358624871"}}, "geometry": {"type": "Point", "coordinates": [-123.56965084025887, 72.90181693844245]}}]}